{
    "links": {
        "self": "http://www.neowsapp.com/rest/v1/neo/3780742?api_key=iIulBulltgU6a56xZRHN4H3l9WmuAYTsLGpBGhQ2"
    },
    "id": "3780742",
    "neo_reference_id": "3780742",
    "name": "(2017 QP1)",
    "designation": "2017 QP1",
    "nasa_jpl_url": "http://ssd.jpl.nasa.gov/sbdb.cgi?sstr=3780742",
    "absolute_magnitude_h": 24.3,
    "estimated_diameter": {
        "kilometers": {
            "estimated_diameter_min": 0.0366906138,
            "estimated_diameter_max": 0.0820427065
        },
        "meters": {
            "estimated_diameter_min": 36.6906137531,
            "estimated_diameter_max": 82.0427064882
        },
        "miles": {
            "estimated_diameter_min": 0.0227984834,
            "estimated_diameter_max": 0.0509789586
        },
        "feet": {
            "estimated_diameter_min": 120.3760332259,
            "estimated_diameter_max": 269.1689931548
        }
    },
    "is_potentially_hazardous_asteroid": false,
    "close_approach_data": [
        {
            "close_approach_date": "2017-08-14",
            "close_approach_date_full": "2017-Aug-14 20:44",
            "epoch_date_close_approach": 1502743440000,
            "relative_velocity": {
                "kilometers_per_second": "24.918377231",
                "kilometers_per_hour": "89706.1580316529",
                "miles_per_hour": "55739.9180280568"
            },
            "miss_distance": {
                "astronomical": "0.0023007314",
                "lunar": "0.8949845146",
                "kilometers": "344184.516882118",
                "miles": "213866.3416765084"
            },
            "orbiting_body": "Moon"
        },
        {
            "close_approach_date": "2017-08-14",
            "close_approach_date_full": "2017-Aug-14 21:23",
            "epoch_date_close_approach": 1502745780000,
            "relative_velocity": {
                "kilometers_per_second": "23.9675087736",
                "kilometers_per_hour": "86283.0315848038",
                "miles_per_hour": "53612.9203755688"
            },
            "miss_distance": {
                "astronomical": "0.0004187293",
                "lunar": "0.1628856977",
                "kilometers": "62641.011386591",
                "miles": "38923.3195773158"
            },
            "orbiting_body": "Earth"
        }
    ],
    "orbital_data": {
        "orbit_id": "1",
        "orbit_determination_date": "2017-08-19 20:12:02",
        "first_observation_date": "2017-08-16",
        "last_observation_date": "2017-08-19",
        "data_arc_in_days": 3,
        "observations_used": 19,
        "orbit_uncertainty": "9",
        "minimum_orbit_intersection": ".000395966",
        "jupiter_tisserand_invariant": "4.523",
        "epoch_osculation": "2457983.5",
        "eccentricity": ".7052483448153499",
        "semi_major_axis": "1.368131634990077",
        "inclination": "8.14257478173799",
        "ascending_node_longitude": "141.8846405796812",
        "orbital_period": "584.5077239830168",
        "perihelion_distance": ".4032590639238067",
        "perihelion_argument": "63.06883790594564",
        "aphelion_distance": "2.333004206056347",
        "perihelion_time": "2457930.343060994603",
        "mean_anomaly": "32.73951268178441",
        "mean_motion": ".6159028961103343",
        "equinox": "J2000",
        "orbit_class": {
            "orbit_class_type": "APO",
            "orbit_class_description": "Near-Earth asteroid orbits which cross the Earth’s orbit similar to that of 1862 Apollo",
            "orbit_class_range": "a (semi-major axis) > 1.0 AU; q (perihelion) < 1.017 AU"
        }
    },
    "is_sentry_object": false
}